{
    "links": {
        "self": "http://www.neowsapp.com/rest/v1/neo/3841175?api_key=iIulBulltgU6a56xZRHN4H3l9WmuAYTsLGpBGhQ2"
    },
    "id": "3841175",
    "neo_reference_id": "3841175",
    "name": "(2019 GF19)",
    "designation": "2019 GF19",
    "nasa_jpl_url": "http://ssd.jpl.nasa.gov/sbdb.cgi?sstr=3841175",
    "absolute_magnitude_h": 23.5,
    "estimated_diameter": {
        "kilometers": {
            "estimated_diameter_min": 0.0530340723,
            "estimated_diameter_max": 0.1185877909
        },
        "meters": {
            "estimated_diameter_min": 53.0340723319,
            "estimated_diameter_max": 118.5877908577
        },
        "miles": {
            "estimated_diameter_min": 0.0329538346,
            "estimated_diameter_max": 0.0736870142
        },
        "feet": {
            "estimated_diameter_min": 173.9963058693,
            "estimated_diameter_max": 389.0675677576
        }
    },
    "is_potentially_hazardous_asteroid": false,
    "close_approach_data": [
        {
            "close_approach_date": "2019-04-24",
            "close_approach_date_full": "2019-Apr-24 19:07",
            "epoch_date_close_approach": 1556132820000,
            "relative_velocity": {
                "kilometers_per_second": "13.5139576358",
                "kilometers_per_hour": "48650.2474889023",
                "miles_per_hour": "30229.3718355349"
            },
            "miss_distance": {
                "astronomical": "0.1653029325",
                "lunar": "64.3028407425",
                "kilometers": "24728966.606753775",
                "miles": "15365867.324701095"
            },
            "orbiting_body": "Earth"
        }
    ],
    "orbital_data": {
        "orbit_id": "4",
        "orbit_determination_date": "2019-04-27 07:12:48",
        "first_observation_date": "2019-04-05",
        "last_observation_date": "2019-04-27",
        "data_arc_in_days": 22,
        "observations_used": 35,
        "orbit_uncertainty": "7",
        "minimum_orbit_intersection": ".157753",
        "jupiter_tisserand_invariant": "3.193",
        "epoch_osculation": "2459000.5",
        "eccentricity": ".5262681893584555",
        "semi_major_axis": "2.456781426013463",
        "inclination": "23.02917369120708",
        "ascending_node_longitude": "35.48355961694887",
        "orbital_period": "1406.527432546943",
        "perihelion_distance": "1.163855513295873",
        "perihelion_argument": "177.9124427719846",
        "aphelion_distance": "3.749707338731052",
        "perihelion_time": "2458595.048797515663",
        "mean_anomaly": "103.7750345402453",
        "mean_motion": ".2559495049080637",
        "equinox": "J2000",
        "orbit_class": {
            "orbit_class_type": "AMO",
            "orbit_class_description": "Near-Earth asteroid orbits similar to that of 1221 Amor",
            "orbit_class_range": "1.017 AU < q (perihelion) < 1.3 AU"
        }
    },
    "is_sentry_object": false
}